{"type": "FeatureCollection", "features": [ {"type": "Feature", "properties": {"norad_id": 32174, "name": "FENGYUN 1C DEB", "group": "fengyun-1c-debris", "lat": 18.006133755436142, "lon": -130.54674071791118, "alt_km": 833.0029980163772, "timestamp": "2025-12-10T09:57:44.984924+00:00", "meta": {"OBJECT_NAME": "FENGYUN 1C DEB", "OBJECT_ID": "1999-025CTU", "EPOCH": "2025-12-08T09:45:57.975264", "MEAN_MOTION": 14.17910967, "ECCENTRICITY": 0.01499603, "INCLINATION": 98.6011, "RA_OF_ASC_NODE": 44.6876, "ARG_OF_PERICENTER": 258.4641, "MEAN_ANOMALY": 99.9665, "EPHEMERIS_TYPE": 0, "CLASSIFICATION_TYPE": "U", "NORAD_CAT_ID": 32174, "ELEMENT_SET_NO": 999, "REV_AT_EPOCH": 64044, "BSTAR": 0.00054004697, "MEAN_MOTION_DOT": 1.19e-05, "MEAN_MOTION_DDOT": 0}, "tle": {"line1": "1 32174U 99025CTU 25342.40692101  .00001190  00000+0  54005-3 0  9998", "line2": "2 32174  98.6011  44.6876 0149960 258.4641  99.9665 14.17910967640445"}}, "geometry": {"type": "Point", "coordinates": [-130.54674071791118, 18.006133755436142]}}, {"type": "Feature", "properties": {"norad_id": 32175, "name": "FENGYUN 1C DEB", "group": "fengyun-1c-debris", "lat": -62.71196512174664, "lon": 135.55516293891122, "alt_km": 908.4286404460845, "timestamp": "2025-12-10T09:57:44.984934+00:00", "meta": {"OBJECT_NAME": "FENGYUN 1C DEB", "OBJECT_ID": "1999-025CTV", "EPOCH": "2025-12-08T17:11:09.000096", "MEAN_MOTION": 13.94753855, "ECCENTRICITY": 0.01525502, "INCLINATION": 98.8243, "RA_OF_ASC_NODE": 331.4548, "ARG_OF_PERICENTER": 334.071, "MEAN_ANOMALY": 25.2864, "EPHEMERIS_TYPE": 0, "CLASSIFICATION_TYPE": "U", "NORAD_CAT_ID": 32175, "ELEMENT_SET_NO": 999, "REV_AT_EPOCH": 59784, "BSTAR": 0.0046815267, "MEAN_MOTION_DOT": 6.874e-05, "MEAN_MOTION_DDOT": 0}, "tle": {"line1": "1 32175U 99025CTV 25342.71607639  .00006874  00000+0  46815-2 0  9998", "line2": "2 32175  98.8243 331.4548 0152550 334.0710  25.2864 13.94753855597848"}}, "geometry": {"type": "Point", "coordinates": [135.55516293891122, -62.71196512174664]}}, {"type": "Feature", "properties": {"norad_id": 32177, "name": "FENGYUN 1C DEB", "group": "fengyun-1c-debris", "lat": -46.1903092691077, "lon": 163.96544508821742, "alt_km": 749.0415876131929, "timestamp": "2025-12-10T09:57:44.984944+00:00", "meta": {"OBJECT_NAME": "FENGYUN 1C DEB", "OBJECT_ID": "1999-025CTX", "EPOCH": "2025-12-09T18:05:03.302016", "MEAN_MOTION": 14.56160005, "ECCENTRICITY": 0.0052091, "INCLINATION": 99.0453, "RA_OF_ASC_NODE": 352.8075, "ARG_OF_PERICENTER": 54.0984, "MEAN_ANOMALY": 306.503, "EPHEMERIS_TYPE": 0, "CLASSIFICATION_TYPE": "U", "NORAD_CAT_ID": 32177, "ELEMENT_SET_NO": 999, "REV_AT_EPOCH": 70995, "BSTAR": 0.0022323, "MEAN_MOTION_DOT": 9.997e-05, "MEAN_MOTION_DDOT": 0}, "tle": {"line1": "1 32177U 99025CTX 25343.75351044  .00009997  00000+0  22323-2 0  9998", "line2": "2 32177  99.0453 352.8075 0052091  54.0984 306.5030 14.56160005709954"}}, "geometry": {"type": "Point", "coordinates": [163.96544508821742, -46.1903092691077]}}, {"type": "Feature", "properties": {"norad_id": 32178, "name": "FENGYUN 1C DEB", "group": "fengyun-1c-debris", "lat": -2.616672503366984, "lon": -14.068684141777277, "alt_km": 757.9858573142164, "timestamp": "2025-12-10T09:57:44.984954+00:00", "meta": {"OBJECT_NAME": "FENGYUN 1C DEB", "OBJECT_ID": "1999-025CTY", "EPOCH": "2025-12-07T17:50:56.721120", "MEAN_MOTION": 14.22943585, "ECCENTRICITY": 0.00947686, "INCLINATION": 100.3035, "RA_OF_ASC_NODE": 342.3342, "ARG_OF_PERICENTER": 337.1658, "MEAN_ANOMALY": 22.5314, "EPHEMERIS_TYPE": 0, "CLASSIFICATION_TYPE": "U", "NORAD_CAT_ID": 32178, "ELEMENT_SET_NO": 999, "REV_AT_EPOCH": 63932, "BSTAR": 0.0022460255, "MEAN_MOTION_DOT": 5.238e-05, "MEAN_MOTION_DDOT": 0}, "tle": {"line1": "1 32178U 99025CTY 25341.74371205  .00005238  00000+0  22460-2 0  9993", "line2": "2 32178 100.3035 342.3342 0094768 337.1658  22.5314 14.22943585639326"}}, "geometry": {"type": "Point", "coordinates": [-14.068684141777277, -2.616672503366984]}}, {"type": "Feature", "properties": {"norad_id": 32179, "name": "FENGYUN 1C DEB", "group": "fengyun-1c-debris", "lat": 5.930042805155968, "lon": -145.77481279824758, "alt_km": 785.6346328224417, "timestamp": "2025-12-10T09:57:44.984964+00:00", "meta": {"OBJECT_NAME": "FENGYUN 1C DEB", "OBJECT_ID": "1999-025CTZ", "EPOCH": "2025-12-08T02:31:42.137184", "MEAN_MOTION": 14.0367669, "ECCENTRICITY": 0.01450328, "INCLINATION": 98.9105, "RA_OF_ASC_NODE": 31.0275, "ARG_OF_PERICENTER": 202.778, "MEAN_ANOMALY": 186.429, "EPHEMERIS_TYPE": 0, "CLASSIFICATION_TYPE": "U", "NORAD_CAT_ID": 32179, "ELEMENT_SET_NO": 999, "REV_AT_EPOCH": 65663, "BSTAR": 0.00014596717, "MEAN_MOTION_DOT": 2.08e-06, "MEAN_MOTION_DDOT": 0}, "tle": {"line1": "1 32179U 99025CTZ 25342.10534881  .00000208  00000+0  14597-3 0  9991", "line2": "2 32179  98.9105  31.0275 0145032 202.7780 186.4290 14.03676690656633"}}, "geometry": {"type": "Point", "coordinates": [-145.77481279824758, 5.930042805155968]}}, {"type": "Feature", "properties": {"norad_id": 32180, "name": "FENGYUN 1C DEB", "group": "fengyun-1c-debris", "lat": -78.86653066480044, "lon": 83.67154907360035, "alt_km": 910.5923758922436, "timestamp": "2025-12-10T09:57:44.984974+00:00", "meta": {"OBJECT_NAME": "FENGYUN 1C DEB", "OBJECT_ID": "1999-025CUA", "EPOCH": "2025-12-09T08:37:52.356000", "MEAN_MOTION": 13.82326424, "ECCENTRICITY": 0.01362278, "INCLINATION": 99.5863, "RA_OF_ASC_NODE": 23.4251, "ARG_OF_PERICENTER": 219.3921, "MEAN_ANOMALY": 205.3295, "EPHEMERIS_TYPE": 0, "CLASSIFICATION_TYPE": "U", "NORAD_CAT_ID": 32180, "ELEMENT_SET_NO": 999, "REV_AT_EPOCH": 94221, "BSTAR": 0.00017006951, "MEAN_MOTION_DOT": 1.5e-06, "MEAN_MOTION_DDOT": 0}, "tle": {"line1": "1 32180U 99025CUA 25343.35963375  .00000150  00000+0  17007-3 0  9990", "line2": "2 32180  99.5863  23.4251 0136227 219.3921 205.3295 13.82326424942210"}}, "geometry": {"type": "Point", "coordinates": [83.67154907360035, -78.86653066480044]}}, {"type": "Feature", "properties": {"norad_id": 32181, "name": "FENGYUN 1C DEB", "group": "fengyun-1c-debris", "lat": -53.50297110956045, "lon": 100.92741874028117, "alt_km": 756.6522672755154, "timestamp": "2025-12-10T09:57:44.984984+00:00", "meta": {"OBJECT_NAME": "FENGYUN 1C DEB", "OBJECT_ID": "1999-025CUB", "EPOCH": "2025-12-09T18:24:48.721248", "MEAN_MOTION": 14.5599637, "ECCENTRICITY": 0.0073749, "INCLINATION": 99.4727, "RA_OF_ASC_NODE": 87.151, "ARG_OF_PERICENTER": 94.1951, "MEAN_ANOMALY": 57.7948, "EPHEMERIS_TYPE": 0, "CLASSIFICATION_TYPE": "U", "NORAD_CAT_ID": 32181, "ELEMENT_SET_NO": 999, "REV_AT_EPOCH": 96677, "BSTAR": 0.001249, "MEAN_MOTION_DOT": 5.644e-05, "MEAN_MOTION_DDOT": 0}, "tle": {"line1": "1 32181U 99025CUB 25343.76723057  .00005644  00000+0  12490-2 0  9990", "line2": "2 32181  99.4727  87.1510 0073749  94.1951  57.7948 14.55996370966770"}}, "geometry": {"type": "Point", "coordinates": [100.92741874028117, -53.50297110956045]}}, {"type": "Feature", "properties": {"norad_id": 32183, "name": "FENGYUN 1C DEB", "group": "fengyun-1c-debris", "lat": 35.306170201309264, "lon": -138.07476877747237, "alt_km": 849.4798507169862, "timestamp": "2025-12-10T09:57:44.984995+00:00", "meta": {"OBJECT_NAME": "FENGYUN 1C DEB", "OBJECT_ID": "1999-025CUD", "EPOCH": "2025-12-09T02:37:54.780384", "MEAN_MOTION": 14.10071301, "ECCENTRICITY": 0.0042849, "INCLINATION": 98.7133, "RA_OF_ASC_NODE": 34.4259, "ARG_OF_PERICENTER": 71.0034, "MEAN_ANOMALY": 289.5773, "EPHEMERIS_TYPE": 0, "CLASSIFICATION_TYPE": "U", "NORAD_CAT_ID": 32183, "ELEMENT_SET_NO": 999, "REV_AT_EPOCH": 72713, "BSTAR": 0.00087644324, "MEAN_MOTION_DOT": 1.519e-05, "MEAN_MOTION_DDOT": 0}, "tle": {"line1": "1 32183U 99025CUD 25343.10966181  .00001519  00000+0  87644-3 0  9998", "line2": "2 32183  98.7133  34.4259 0042849  71.0034 289.5773 14.10071301727138"}}, "geometry": {"type": "Point", "coordinates": [-138.07476877747237, 35.306170201309264]}}, {"type": "Feature", "properties": {"norad_id": 32184, "name": "FENGYUN 1C DEB", "group": "fengyun-1c-debris", "lat": -57.83130075842319, "lon": 136.59868080274978, "alt_km": 415.3624014480001, "timestamp": "2025-12-10T09:57:44.985005+00:00", "meta": {"OBJECT_NAME": "FENGYUN 1C DEB", "OBJECT_ID": "1999-025CUE", "EPOCH": "2025-12-08T08:24:46.586880", "MEAN_MOTION": 15.42949413, "ECCENTRICITY": 0.00717596, "INCLINATION": 98.12, "RA_OF_ASC_NODE": 121.1774, "ARG_OF_PERICENTER": 3.6696, "MEAN_ANOMALY": 356.5061, "EPHEMERIS_TYPE": 0, "CLASSIFICATION_TYPE": "U", "NORAD_CAT_ID": 32184, "ELEMENT_SET_NO": 999, "REV_AT_EPOCH": 98336, "BSTAR": 0.0017020351, "MEAN_MOTION_DOT": 0.00082955, "MEAN_MOTION_DDOT": 0}, "tle": {"line1": "1 32184U 99025CUE 25342.35053920  .00082955  00000+0  17020-2 0  9996", "line2": "2 32184  98.1200 121.1774 0071759   3.6696 356.5061 15.42949413983369"}}, "geometry": {"type": "Point", "coordinates": [136.59868080274978, -57.83130075842319]}}, {"type": "Feature", "properties": {"norad_id": 32185, "name": "FENGYUN 1C DEB", "group": "fengyun-1c-debris", "lat": 35.35002165352038, "lon": 16.713055256000146, "alt_km": 612.6693865264342, "timestamp": "2025-12-10T09:57:44.985016+00:00", "meta": {"OBJECT_NAME": "FENGYUN 1C DEB", "OBJECT_ID": "1999-025CUF", "EPOCH": "2025-12-09T20:33:08.703936", "MEAN_MOTION": 15.03004796, "ECCENTRICITY": 0.0163456, "INCLINATION": 98.904, "RA_OF_ASC_NODE": 189.6861, "ARG_OF_PERICENTER": 24.4993, "MEAN_ANOMALY": 336.3884, "EPHEMERIS_TYPE": 0, "CLASSIFICATION_TYPE": "U", "NORAD_CAT_ID": 32185, "ELEMENT_SET_NO": 999, "REV_AT_EPOCH": 94972, "BSTAR": 0.003972, "MEAN_MOTION_DOT": 0.00072177, "MEAN_MOTION_DDOT": 0}, "tle": {"line1": "1 32185U 99025CUF 25343.85635074  .00072177  00000+0  39720-2 0  9995", "line2": "2 32185  98.9040 189.6861 0163456  24.4993 336.3884 15.03004796949727"}}, "geometry": {"type": "Point", "coordinates": [16.713055256000146, 35.35002165352038]}}]}